#dP2023  3  3 18  0  0.00000000      96 __u+U ITR00 EXT  IAC
## 2251 496800.00000000   900.00000000 60006 0.7500000000000
+  118   C06C07C08C09C10C11C12C13C14C16C19C20C21C22C23C24C25
+        C26C27C28C29C30C32C33C34C35C36C37C38C39C40C41C42C43
+        C44C45C46E02E03E04E05E07E08E09E10E11E12E14E15E18E19
+        E21E24E25E26E27E30E31E33E34E36G01G02G03G04G05G06G07
+        G08G09G10G11G12G13G14G15G16G17G18G19G20G21G22G23G24
+        G25G26G27G28G29G30G31G32J02J03J04R01R02R03R04R05R07
+        R08R09R11R12R13R14R15R16R17R18R19R20R21R22R24R25  0
++        10 10 11  8 10  8  8 10  8 10  9  7  8  7  9  8  8
++         9  8 10  9  8  9  8  8 13  9  8 10 11 10  8  7  9
++         8  8 10  7  6  6  7  6  6  8  8  9  8  6  7  8  7
++         8  7  7  7  8  7  8  7  9  8  6  8  7  8  8  8  7
++         7  7  8  8  7  8  7  7  7  8  8  8  8  7  7  7  8
++         8  7  7  7  7  7  6  6  9  9 11  9  8  7  7  6  9
++         7  9  8  8  8  7  8  8  7 10  9 11  7  7  7  9  0
%c M  cc GPS ccc cccc cccc cccc cccc ccccc ccccc ccccc ccccc
%c cc cc ccc ccc cccc cccc cccc cccc ccccc ccccc ccccc ccccc
%f  0.0000000  0.000000000  0.00000000000  0.000000000000000
%f  0.0000000  0.000000000  0.00000000000  0.000000000000000
%i    0    0    0    0      0      0      0      0         0
%i    0    0    0    0      0      0      0      0         0
/* IAC                                ULTRA-RAPID PREDICTION
/* S/V CLOCKS ARE ALIGNED TO GNSS TIME                      
/* G:C1WC2W R:C1PC2P E:C1XC5X C:C2IC6I J:C1CC2S             
/* PCV:IGS20_2247 OL/AL:FES2004  NONE     YN ORB:CoN CLK:CoN
*  2023 03 03 21 30  0.00000000
PC06  -1805.772937  30519.157817  29163.996548   -194.065367
PC07 -16873.581921  28463.910376 -26172.706078     32.157972
PC08 -12512.867074  40154.866721    703.475050    522.184543
PC09   5569.284819  34987.680582  23662.643384    902.907556
PC10  -9429.843459  28817.226708 -29174.407830     -1.033086
PC11 -11832.921022   9935.904438 -23171.563885    685.806554
PC12 -22615.449639  -6165.366049 -15103.678506    485.098691
PC13  -7800.654934  40812.869794   6466.789354    221.091231
PC14 -21129.870186  15344.180550   9943.537001    546.327153
PC16  -3327.057437  29063.842593  30680.090232    148.127383
PC19  12864.945303 -17581.639658 -17397.164700   -895.001701
PC20  25305.123080 -11446.772626  -2529.485935    697.361633
PC21 -23427.980012  -2104.967474 -15012.149649   -909.157503
PC22  -7647.673535 -13877.296922 -22967.860376   -604.196061
PC23   4271.250596  25061.562413 -11504.713209   -883.472910
PC24 -16278.423659  11018.317209  19779.093253   -339.942944
PC25  -7298.123286  26462.521170   4946.035551     81.518550
PC26 -14914.115424  -8154.749830  22118.946662    -86.742596
PC27  23581.271735  12786.953442   7705.872143    105.182577
PC28  15785.493587  21243.597118  -8849.193636     76.879902
PC29   2010.982839 -17501.805241  21634.771385     88.660338
PC30  18911.870351  -3218.740424  20268.683405      0.998180
PC32  23379.555595   2028.658164  15112.162752   -608.070196
PC33 -12851.128000  17698.469204  17350.935092   -871.155257
PC34 -18074.309399   4385.406335 -20807.557466    118.578577
PC35 -15660.913667 -20873.547481   9819.311707    670.849216
PC36   8332.967837 -26040.526867  -5593.844279   -588.120327
PC37  14262.031101   9967.574582 -21806.945696   -809.315302
PC38 -16456.961858  37927.023156  -7852.251521     62.572328
PC39  -8242.287719  24648.420481  33279.192840     -2.017302
PC40 -23251.107889  22294.247661 -27337.843837    -16.574991
PC41   7004.980777  14216.781664  23025.785032   -679.519346
PC42 -25705.439432  10818.528210   1342.181642   -806.287473
PC43  -2917.938309  17178.978454 -21811.834308      9.985360
PC44 -24039.158069 -11965.288008  -7538.321040     32.995011
PC45  -4456.920850 -24861.230335  11885.696932    -67.587859
PC46  15893.070613 -12878.725321 -19007.577972    -37.326162
PE02  15458.608281   7422.181616 -24138.909220     24.173574
PE03  26522.656224  10544.833977   7827.462912   -655.590747
PE04 -27636.418203   2244.610489  10369.192997    -70.527411
PE05   9759.852522  17431.189672  21847.668184    -89.932325
PE07  12604.238004 -13965.623047 -22844.125160    -27.162000
PE08  27687.521929  -2108.859424 -10238.690140    -45.247469
PE09 -12766.648392  13779.892133  22883.375468   -856.074360
PE10 -11620.975075  13078.466624 -23879.862259   -516.461382
PE11  -4911.439689  22405.057808 -18727.984632   1107.057757
PE12 -16045.149075   2661.106463 -24728.247150   -443.534363
PE14  16202.175264  -8112.225921  15008.923000    158.141823
PE15  16101.855904  -2235.046937  24746.094626     -4.969165
PE18 -22614.864325  10710.142422 -20589.777706   -325.405414
PE19 -25047.755673 -11987.890891 -10235.223260  -3096.989781
PE21    189.930653 -21539.828157  20297.558450   -515.417628
PE24 -17197.539033  23777.138724  -3789.431623  -1145.245900
PE25   -471.829612  21692.265160 -20131.570743   -600.572882
PE26  -8742.206453 -28216.600681   1847.172104     34.896162
PE27  16635.586076 -24067.225871   4542.401744   -525.964958
PE30  23175.104996 -11734.995250 -14224.776300  -1288.025386
PE31 -23109.544337  12388.224654  13726.252848   -517.564213
PE33 -17180.548217 -18436.990203 -15506.880100   -450.395605
PE34  17255.191117  18274.898932  15633.545481    -33.020839
PE36   8305.785712  28295.892782  -2647.734291    -20.814720
PG01  14683.324731   -652.701821  21830.726702    206.467212
PG02 -13580.618422   5866.367803 -21440.986172   -616.952860
PG03  21158.577232 -10029.368491  12303.141501   -355.555378
PG04  24231.127360  -1044.322658 -10948.305137    -15.196608
PG05 -15567.997525  -4569.596846 -21218.246971   -118.083685
PG06  -4966.430029 -25829.674767   3355.453008    578.183035
PG07   9443.661571 -15575.313256 -18717.457227    230.269175
PG08  25979.043288   6421.555946   -994.196243   -111.208973
PG09  16504.665603  -9691.672844 -18507.620303   -207.632212
PG10  -7660.926462  21375.076114  13694.013832    -27.073057
PG11 -12221.240924 -21305.681037 -10139.838080   -119.854443
PG12 -21594.639196   7012.089783  13419.622077   -347.157047
PG13 -22017.726713 -13616.657851  -6559.920496    484.936395
PG14  10638.509754 -21543.826678  11177.930235    -13.340903
PG15 -26450.317617  -3636.992203  -1161.123580     18.374537
PG16  13450.865017   8222.318116 -21731.855998   -517.377204
PG17   2770.801410 -14908.676171  22234.133912    703.411956
PG18  -6845.038672  19120.906048 -17036.874826   -164.311639
PG19  -8891.715404 -16641.770946  18576.226628    285.217709
PG20  -8196.288153 -14450.541161 -20729.241046    447.232288
PG21  17473.666635   8138.243790  19193.396954    154.231957
PG22  12004.236651  16744.190563  17294.142702    438.230543
PG23 -16258.393525  20722.285135   2747.509890      8.747156
PG24 -17020.169902  -3301.774214  19872.009020    -97.086946
PG25 -20249.670230  15983.732915   5364.503801    424.760768
PG26   2951.201058  18304.341281 -19010.535737    241.843755
PG27  20612.889492  13002.593109 -11290.041671     89.205625
PG28   4628.028511  25635.340879   5166.248398     32.473503
PG29 -19747.692715   5539.168694 -16967.381286   -589.098454
PG30    846.447002 -24414.468969  -9996.942264   -528.311576
PG31   6332.142119  25535.364685    608.438656   -210.732950
PG32   1421.446612  15810.880889  21490.189524   -412.992514
PJ02 -35118.352216  23358.032122   6235.577211     -1.083928
PJ03 -21484.180081  20557.009310 -25293.221219      0.624306
PJ04 -27174.622465  31763.339842  11638.918293     94.182761
PR01  -2856.547784 -10646.476629 -22997.585846     24.089836
PR02 -20222.537360  -3675.696990 -15013.722746    -23.197406
PR03 -24888.714917   5232.779246   1558.961377     73.509307
PR04 -15776.412567  10744.820163  16947.132862    177.980352
PR05   1933.505502  10596.235893  23137.944814    108.675107
PR07  24830.795953  -5507.916756  -2217.981185     51.030104
PR08  15628.928732 -10903.654851 -16910.258081    -69.708747
PR09   8773.869315   8699.896047 -22312.625764    107.168745
PR11  10826.611404 -22165.540449  -6460.318561    -12.611555
PR12   1599.235977 -22309.247931  12300.570368     25.400260
PR13  -7632.198315 -10392.053301  21988.988069    -32.617130
PR14 -13359.637912   9723.774408  19442.888427     24.384332
PR15 -10698.862592  22534.601455   5344.068762     90.705566
PR16  -1711.921634  22458.648368 -11999.117405     11.942506
PR17 -14715.364908  -2988.091531 -20619.957661    609.647954
PR18  -3586.598035  11523.930248 -22464.952848     69.645172
PR19   7754.862238  20003.166889 -13801.010166   -223.948226
PR20  17266.481207  17661.560215   6482.656249    -88.694252
PR21  13771.977494   1541.959237  21412.022544   -377.603415
PR22   3727.117479 -12243.126920  22089.235671     73.370407
PR24 -17997.268166 -16661.922294  -7005.534308    150.994316
PR25  14880.116189   3725.330632  20382.226942     56.698467
EOF
